[{"OBJECT_NAME":"NIMIQ 6","OBJECT_ID":"2012-026A","EPOCH":"2026-04-05T03:12:38.783808","MEAN_MOTION":1.00271745,"ECCENTRICITY":0.00026047,"INCLINATION":0.0464,"RA_OF_ASC_NODE":68.6184,"ARG_OF_PERICENTER":306.3534,"MEAN_ANOMALY":135.5211,"EPHEMERIS_TYPE":0,"CLASSIFICATION_TYPE":"U","NORAD_CAT_ID":38342,"ELEMENT_SET_NO":999,"REV_AT_EPOCH":4968,"BSTAR":0,"MEAN_MOTION_DOT":-1.73e-6,"MEAN_MOTION_DDOT":0},{"OBJECT_NAME":"ZHONGXING-2A","OBJECT_ID":"2012-028A","EPOCH":"2026-04-05T03:03:38.763072","MEAN_MOTION":1.00271282,"ECCENTRICITY":0.00010356,"INCLINATION":1.2658,"RA_OF_ASC_NODE":84.8337,"ARG_OF_PERICENTER":341.4265,"MEAN_ANOMALY":271.3623,"EPHEMERIS_TYPE":0,"CLASSIFICATION_TYPE":"U","NORAD_CAT_ID":38352,"ELEMENT_SET_NO":999,"REV_AT_EPOCH":5056,"BSTAR":0,"MEAN_MOTION_DOT":-2.91e-6,"MEAN_MOTION_DDOT":0},{"OBJECT_NAME":"INTELSAT 19 (IS-19)","OBJECT_ID":"2012-030A","EPOCH":"2026-04-05T03:16:02.992800","MEAN_MOTION":1.00270161,"ECCENTRICITY":0.0003082,"INCLINATION":0.0253,"RA_OF_ASC_NODE":102.5391,"ARG_OF_PERICENTER":274.9099,"MEAN_ANOMALY":31.0005,"EPHEMERIS_TYPE":0,"CLASSIFICATION_TYPE":"U","NORAD_CAT_ID":38356,"ELEMENT_SET_NO":999,"REV_AT_EPOCH":4971,"BSTAR":0,"MEAN_MOTION_DOT":-5.6e-7,"MEAN_MOTION_DDOT":0},{"OBJECT_NAME":"ECHOSTAR 17","OBJECT_ID":"2012-035A","EPOCH":"2026-04-05T01:58:02.972640","MEAN_MOTION":1.0027116,"ECCENTRICITY":0.00018947,"INCLINATION":0.0175,"RA_OF_ASC_NODE":180.5082,"ARG_OF_PERICENTER":197.6467,"MEAN_ANOMALY":97.6409,"EPHEMERIS_TYPE":0,"CLASSIFICATION_TYPE":"U","NORAD_CAT_ID":38551,"ELEMENT_SET_NO":999,"REV_AT_EPOCH":5033,"BSTAR":0,"MEAN_MOTION_DOT":-7.4e-7,"MEAN_MOTION_DDOT":0},{"OBJECT_NAME":"METEOSAT-10 (MSG-3)","OBJECT_ID":"2012-035B","EPOCH":"2026-04-05T05:54:02.582208","MEAN_MOTION":1.00273516,"ECCENTRICITY":0.0002412,"INCLINATION":4.4996,"RA_OF_ASC_NODE":61.3216,"ARG_OF_PERICENTER":296.9339,"MEAN_ANOMALY":283.8759,"EPHEMERIS_TYPE":0,"CLASSIFICATION_TYPE":"U","NORAD_CAT_ID":38552,"ELEMENT_SET_NO":999,"REV_AT_EPOCH":5012,"BSTAR":0,"MEAN_MOTION_DOT":-4.0e-8,"MEAN_MOTION_DDOT":0},{"OBJECT_NAME":"SES-5","OBJECT_ID":"2012-036A","EPOCH":"2026-04-05T05:28:38.784288","MEAN_MOTION":1.00271682,"ECCENTRICITY":0.00020162,"INCLINATION":0.0599,"RA_OF_ASC_NODE":303.013,"ARG_OF_PERICENTER":75.2098,"MEAN_ANOMALY":262.4372,"EPHEMERIS_TYPE":0,"CLASSIFICATION_TYPE":"U","NORAD_CAT_ID":38652,"ELEMENT_SET_NO":999,"REV_AT_EPOCH":4372,"BSTAR":0,"MEAN_MOTION_DOT":3.5e-7,"MEAN_MOTION_DDOT":0},{"OBJECT_NAME":"INTELSAT 20 (IS-20)","OBJECT_ID":"2012-043A","EPOCH":"2026-04-05T04:30:55.810944","MEAN_MOTION":1.00269642,"ECCENTRICITY":0.00024497,"INCLINATION":0.0187,"RA_OF_ASC_NODE":134.9766,"ARG_OF_PERICENTER":34.6049,"MEAN_ANOMALY":160.1349,"EPHEMERIS_TYPE":0,"CLASSIFICATION_TYPE":"U","NORAD_CAT_ID":38740,"ELEMENT_SET_NO":999,"REV_AT_EPOCH":5001,"BSTAR":0,"MEAN_MOTION_DOT":-2.3e-7,"MEAN_MOTION_DDOT":0},{"OBJECT_NAME":"HYLAS 2","OBJECT_ID":"2012-043B","EPOCH":"2026-04-05T04:50:15.427680","MEAN_MOTION":1.00272512,"ECCENTRICITY":0.00027958,"INCLINATION":2.2389,"RA_OF_ASC_NODE":81.9409,"ARG_OF_PERICENTER":319.3551,"MEAN_ANOMALY":152.2349,"EPHEMERIS_TYPE":0,"CLASSIFICATION_TYPE":"U","NORAD_CAT_ID":38741,"ELEMENT_SET_NO":999,"REV_AT_EPOCH":5004,"BSTAR":0,"MEAN_MOTION_DOT":-2.55e-6,"MEAN_MOTION_DDOT":0},{"OBJECT_NAME":"INTELSAT 21 (IS-21)","OBJECT_ID":"2012-045A","EPOCH":"2026-04-05T02:12:09.119808","MEAN_MOTION":1.00272496,"ECCENTRICITY":0.00019521,"INCLINATION":0.0182,"RA_OF_ASC_NODE":208.739,"ARG_OF_PERICENTER":184.6489,"MEAN_ANOMALY":135.0477,"EPHEMERIS_TYPE":0,"CLASSIFICATION_TYPE":"U","NORAD_CAT_ID":38749,"ELEMENT_SET_NO":999,"REV_AT_EPOCH":4979,"BSTAR":0,"MEAN_MOTION_DOT":-2.84e-6,"MEAN_MOTION_DDOT":0},{"OBJECT_NAME":"ASTRA 2F","OBJECT_ID":"2012-051A","EPOCH":"2026-04-05T05:12:38.653056","MEAN_MOTION":1.00269855,"ECCENTRICITY":0.00013892,"INCLINATION":0.0648,"RA_OF_ASC_NODE":254.9002,"ARG_OF_PERICENTER":32.5561,"MEAN_ANOMALY":12.4249,"EPHEMERIS_TYPE":0,"CLASSIFICATION_TYPE":"U","NORAD_CAT_ID":38778,"ELEMENT_SET_NO":999,"REV_AT_EPOCH":4040,"BSTAR":0,"MEAN_MOTION_DOT":1.51e-6,"MEAN_MOTION_DDOT":0},{"OBJECT_NAME":"GSAT-10","OBJECT_ID":"2012-051B","EPOCH":"2026-04-05T02:57:21.746304","MEAN_MOTION":1.00273123,"ECCENTRICITY":0.00062673,"INCLINATION":0.0824,"RA_OF_ASC_NODE":265.6529,"ARG_OF_PERICENTER":171.8567,"MEAN_ANOMALY":243.2403,"EPHEMERIS_TYPE":0,"CLASSIFICATION_TYPE":"U","NORAD_CAT_ID":38779,"ELEMENT_SET_NO":999,"REV_AT_EPOCH":4936,"BSTAR":0,"MEAN_MOTION_DOT":-1.64e-6,"MEAN_MOTION_DDOT":0},{"OBJECT_NAME":"INTELSAT 23 (IS-23)","OBJECT_ID":"2012-057A","EPOCH":"2026-04-04T22:48:06.745248","MEAN_MOTION":1.00269209,"ECCENTRICITY":6.344e-5,"INCLINATION":0.0163,"RA_OF_ASC_NODE":248.1399,"ARG_OF_PERICENTER":160.5936,"MEAN_ANOMALY":73.5248,"EPHEMERIS_TYPE":0,"CLASSIFICATION_TYPE":"U","NORAD_CAT_ID":38867,"ELEMENT_SET_NO":999,"REV_AT_EPOCH":4922,"BSTAR":0,"MEAN_MOTION_DOT":-2.84e-6,"MEAN_MOTION_DDOT":0},{"OBJECT_NAME":"BEIDOU-2 G6","OBJECT_ID":"2012-059A","EPOCH":"2026-04-05T01:09:52.593696","MEAN_MOTION":1.00271726,"ECCENTRICITY":0.00109275,"INCLINATION":4.237,"RA_OF_ASC_NODE":74.2924,"ARG_OF_PERICENTER":311.7479,"MEAN_ANOMALY":268.8374,"EPHEMERIS_TYPE":0,"CLASSIFICATION_TYPE":"U","NORAD_CAT_ID":38953,"ELEMENT_SET_NO":999,"REV_AT_EPOCH":4917,"BSTAR":0,"MEAN_MOTION_DOT":-1.73e-6,"MEAN_MOTION_DDOT":0},{"OBJECT_NAME":"LUCH-5B","OBJECT_ID":"2012-061A","EPOCH":"2026-04-05T04:06:35.644032","MEAN_MOTION":1.00273707,"ECCENTRICITY":0.00023371,"INCLINATION":10.3284,"RA_OF_ASC_NODE":50.5926,"ARG_OF_PERICENTER":229.5635,"MEAN_ANOMALY":318.6546,"EPHEMERIS_TYPE":0,"CLASSIFICATION_TYPE":"U","NORAD_CAT_ID":38977,"ELEMENT_SET_NO":999,"REV_AT_EPOCH":4887,"BSTAR":0,"MEAN_MOTION_DOT":-1.34e-6,"MEAN_MOTION_DDOT":0},{"OBJECT_NAME":"YAMAL 300K","OBJECT_ID":"2012-061B","EPOCH":"2026-04-04T01:40:35.851296","MEAN_MOTION":1.00272982,"ECCENTRICITY":3.939e-5,"INCLINATION":0.011,"RA_OF_ASC_NODE":186.0808,"ARG_OF_PERICENTER":45.6533,"MEAN_ANOMALY":168.75,"EPHEMERIS_TYPE":0,"CLASSIFICATION_TYPE":"U","NORAD_CAT_ID":38978,"ELEMENT_SET_NO":999,"REV_AT_EPOCH":4888,"BSTAR":0,"MEAN_MOTION_DOT":7.0e-7,"MEAN_MOTION_DDOT":0},{"OBJECT_NAME":"STAR ONE C3","OBJECT_ID":"2012-062A","EPOCH":"2026-04-05T04:03:38.630304","MEAN_MOTION":1.00271672,"ECCENTRICITY":0.0002572,"INCLINATION":0.0272,"RA_OF_ASC_NODE":267.9859,"ARG_OF_PERICENTER":129.3474,"MEAN_ANOMALY":142.037,"EPHEMERIS_TYPE":0,"CLASSIFICATION_TYPE":"U","NORAD_CAT_ID":38991,"ELEMENT_SET_NO":999,"REV_AT_EPOCH":4903,"BSTAR":0,"MEAN_MOTION_DOT":-2.48e-6,"MEAN_MOTION_DDOT":0},{"OBJECT_NAME":"EUTELSAT 21B","OBJECT_ID":"2012-062B","EPOCH":"2026-04-05T05:20:38.838336","MEAN_MOTION":1.00273449,"ECCENTRICITY":0.00028317,"INCLINATION":0.0715,"RA_OF_ASC_NODE":10.9837,"ARG_OF_PERICENTER":2.235,"MEAN_ANOMALY":282.0618,"EPHEMERIS_TYPE":0,"CLASSIFICATION_TYPE":"U","NORAD_CAT_ID":38992,"ELEMENT_SET_NO":999,"REV_AT_EPOCH":4909,"BSTAR":0,"MEAN_MOTION_DOT":1.31e-6,"MEAN_MOTION_DDOT":0}]
